NORAD_CAT_ID,OBJECT_NAME,OBJECT_TYPE,EPOCH,MEAN_MOTION,ECCENTRICITY,INCLINATION,RA_OF_ASC_NODE,ARG_OF_PERICENTER,MEAN_ANOMALY,BSTAR,MEAN_MOTION_DOT,MEAN_MOTION_DDOT,TLE_LINE0,TLE_LINE1,TLE_LINE2,SEMIMAJOR_AXIS,PERIOD,APOGEE,PERIGEE,DECAYED
49434.0,STARLINK-3134,PAYLOAD,2021-11-29 14:00:01,15.74614227,0.000207,53.2176,53.5924,28.2392,143.2703,-0.0060282,-0.00817698,0.0,0 STARLINK-3134,1 49434U 21104AC  21333.58334491 -.00817698  00000-0 -60282-2 0  9992,2 49434  53.2176  53.5924 0002070  28.2392 143.2703 15.74614227  3803,6723.866,91.451,347.12300000000016,344.339,0.0
49434.0,STARLINK-3134,PAYLOAD,2021-11-29 22:00:00,15.74029231,0.0001526,53.2174,51.9387,41.2454,220.5338,-0.006199,-0.00819326,0.0,0 STARLINK-3134,1 49434U 21104AC  21333.91667824 -.00819326  00000-0 -61990-2 0  9995,2 49434  53.2174  51.9387 0001526  41.2454 220.5338 15.74029231  3241,6725.531999999997,91.485,348.423,346.371,0.0
49434.0,STARLINK-3134,PAYLOAD,2021-11-30 06:00:00,15.73278629,0.0001710999999999,53.2175,50.2872,35.1863,316.1801,-0.00083623,-0.00116763,0.0,0 STARLINK-3134,1 49434U 21104AC  21334.25001157 -.00116763  00000-0 -83623-3 0  9997,2 49434  53.2175  50.2872 0001711  35.1863 316.1801 15.73278629  3901,6727.670999999999,91.529,350.68699999999984,348.385,0.0
49434.0,STARLINK-3134,PAYLOAD,2021-11-30 10:00:00,15.73202963,0.0001785,53.2174,49.4635,14.5251,201.345,1.8889e-05,2.031e-05,0.0,0 STARLINK-3134,1 49434U 21104AC  21334.41667824  .00002031  00000-0  18889-4 0  9997,2 49434  53.2174  49.4635 0001785  14.5251 201.3450 15.73202963  3330,6727.887,91.533,350.95300000000015,348.551,0.0
49434.0,STARLINK-3134,PAYLOAD,2021-11-30 16:00:00,15.73269725,0.0001431,53.2182,48.2267,11.9644,180.7016,-0.00011799,-0.00017195,0.0,0 STARLINK-3134,1 49434U 21104AC  21334.66667824 -.00017195  00000-0 -11799-3 0  9995,2 49434  53.2182  48.2267 0001431  11.9644 180.7016 15.73269725  3979,6727.696,91.529,350.524,348.599,0.0
49434.0,STARLINK-3134,PAYLOAD,2021-11-30 22:00:00,15.73246985,0.0001379,53.2186,46.9879,17.5395,151.8903,-0.00013885,-0.000201,0.0,0 STARLINK-3134,1 49434U 21104AC  21334.91667824 -.00020100  00000-0 -13885-3 0  9991,2 49434  53.2186  46.9879 0001379  17.5395 151.8903 15.73246985  3419,6727.761,91.53,350.55400000000014,348.6980000000001,0.0
49434.0,STARLINK-3134,PAYLOAD,2021-12-01 06:00:00,15.73383999,0.0001078,53.2184,45.3375,15.9718,242.3663,-0.0023444,-0.00319942,0.0,0 STARLINK-3134,1 49434U 21104AC  21335.25001157 -.00319942  00000-0 -23444-2 0  9996,2 49434  53.2184  45.3375 0001078  15.9718 242.3663 15.73383999  4066,6727.371,91.522,349.961,348.51,0.0
49434.0,STARLINK-3134,PAYLOAD,2021-12-01 14:00:01,15.73190093,0.0001794,53.2188,43.6904,31.2947,316.0546,0.00022665,0.00031294,0.0,0 STARLINK-3134,1 49434U 21104AC  21335.58334491  .00031294  00000-0  22665-3 0  9996,2 49434  53.2188  43.6904 0001794  31.2947 316.0546 15.73190093  4115,6727.9230000000025,91.534,350.995,348.581,0.0
49434.0,STARLINK-3134,PAYLOAD,2021-12-01 22:00:00,15.73224342,0.000164,53.2185,42.0395,33.3694,42.9245,0.00013124,0.00017857,0.0,0 STARLINK-3134,1 49434U 21104AC  21335.91667824  .00017857  00000-0  13124-3 0  9991,2 49434  53.2185  42.0395 0001640  33.3694  42.9245 15.73224342  3576,6727.826,91.532,350.7940000000001,348.587,0.0
49434.0,STARLINK-3134,PAYLOAD,2021-12-02 12:00:00,15.73220849,0.0001874,53.2185,39.1544,34.3194,107.6919,-0.00054209,-0.00076088,0.0,0 STARLINK-3134,1 49434U 21104AC  21336.50001157 -.00076088  00000-0 -54209-3 0  9990,2 49434  53.2185  39.1544 0001874  34.3194 107.6919 15.73220849  4266,6727.8359999999975,91.532,350.962,348.44,0.0
49434.0,STARLINK-3134,PAYLOAD,2021-12-02 22:00:00,15.73173867,0.0001712,53.2189,37.0913,33.5169,309.6333,0.00014831,0.00020221,0.0,0 STARLINK-3134,1 49434U 21104AC  21336.91667824  .00020221  00000-0  14831-3 0  9997,2 49434  53.2189  37.0913 0001712  33.5169 309.6333 15.73173867  4329,6727.97,91.535,350.987,348.68300000000005,0.0
49434.0,STARLINK-3134,PAYLOAD,2021-12-03 14:00:01,15.73119365,0.0001917,53.2189,33.7943,25.9895,134.9746,0.00051393,0.00071878,0.0,0 STARLINK-3134,1 49434U 21104AC  21337.58334491  .00071878  00000-0  51393-3 0  9990,2 49434  53.2189  33.7943 0001917  25.9895 134.9746 15.73119365  4435,6728.125,91.538,351.28,348.7,0.0
49434.0,STARLINK-3134,PAYLOAD,2021-12-03 22:00:00,15.73160576,0.0001747,53.2187,32.1432,28.8265,221.0023,0.00017274,0.0002365,0.0,0 STARLINK-3134,1 49434U 21104AC  21337.91667824  .00023650  00000-0  17274-3 0  9991,2 49434  53.2187  32.1432 0001747  28.8265 221.0023 15.73160576  3719,6728.0080000000025,91.535,351.048,348.69699999999995,0.0
49434.0,STARLINK-3134,PAYLOAD,2021-12-04 06:00:00,15.73208366,0.0001749,53.2186,30.4941,31.3855,307.3339,4.2712e-05,5.379999999999999e-05,0.0,0 STARLINK-3134,1 49434U 21104AC  21338.25001157  .00005380  00000-0  42712-4 0  9996,2 49434  53.2186  30.4941 0001749  31.3855 307.3339 15.73208366  4539,6727.871,91.533,350.913,348.56,0.0
49434.0,STARLINK-3134,PAYLOAD,2021-12-04 22:00:00,15.73229693,0.0001864,53.2187,27.1948,31.7462,124.8507,1.4909e-05,1.474e-05,0.0,0 STARLINK-3134,1 49434U 21104AC  21338.91667824  .00001474  00000-0  14909-4 0  9995,2 49434  53.2187  27.1948 0001864  31.7462 124.8507 15.73229693  3709,6727.811,91.531,350.93,348.421,0.0
49434.0,STARLINK-3134,PAYLOAD,2021-12-05 06:00:02,15.73231171,0.0002055,53.2189,25.5455,38.165,207.4633,-0.0003431,-0.00048564,0.0,0 STARLINK-3134,1 49434U 21104AC  21339.25002315 -.00048564  00000-0 -34310-3 0  9991,2 49434  53.2189  25.5455 0002055  38.1650 207.4633 15.73231171  4690,6727.806,91.531,351.05400000000014,348.289,0.0
49434.0,STARLINK-3134,PAYLOAD,2021-12-05 14:00:01,15.73178632,0.0002335,53.2186,23.8977,35.3762,299.1345,0.00050773,0.00071181,0.0,0 STARLINK-3134,1 49434U 21104AC  21339.58334491  .00071181  00000-0  50773-3 0  9990,2 49434  53.2186  23.8977 0002335  35.3762 299.1345 15.73178632  3735,6727.956,91.534,351.392,348.25,0.0
49434.0,STARLINK-3134,PAYLOAD,2021-12-05 22:00:00,15.73200371,0.0002081,53.2184,22.2462,38.8449,24.5997,0.00034053,0.00047444,0.0,0 STARLINK-3134,1 49434U 21104AC  21339.91667824  .00047444  00000-0  34053-3 0  9994,2 49434  53.2184  22.2462 0002081  38.8449  24.5997 15.73200371  4799,6727.894,91.533,351.159,348.3590000000001,0.0
49434.0,STARLINK-3134,PAYLOAD,2021-12-06 14:00:01,15.7316967,0.0002227,53.2182,18.949,31.1577,210.2761,0.00050654,0.00070983,0.0,0 STARLINK-3134,1 49434U 21104AC  21340.58335648  .00070983  00000-0  50654-3 0  9994,2 49434  53.2182  18.9490 0002227  31.1577 210.2761 15.73169670  4902,6727.982,91.535,351.345,348.348,0.0
49434.0,STARLINK-3134,PAYLOAD,2021-12-06 22:00:00,15.7318997,0.0002035,53.2185,17.2974,34.4365,295.8540000000001,0.00029948,0.00041602,0.0,0 STARLINK-3134,1 49434U 21104AC  21340.91667824  .00041602  00000-0  29948-3 0  9993,2 49434  53.2185  17.2974 0002035  34.4365 295.8540 15.73189970  4956,6727.924,91.534,351.158,348.42,0.0
49434.0,STARLINK-3134,PAYLOAD,2021-12-07 14:00:01,15.73160215,0.0002266,53.2185,14.0002,28.1666,119.9991,0.00043793,0.00061188,0.0,0 STARLINK-3134,1 49434U 21104AC  21341.58334491  .00061188  00000-0  43793-3 0  9993,2 49434  53.2185  14.0002 0002266  28.1666 119.9991 15.73160215  5063,6728.009,91.535,351.398,348.349,0.0
49434.0,STARLINK-3134,PAYLOAD,2021-12-07 22:00:00,15.73171963,0.0002062,53.2185,12.3487,31.3776,205.6995,0.0004146,0.000579,0.0,0 STARLINK-3134,1 49434U 21104AC  21341.91667824  .00057900  00000-0  41460-3 0  9995,2 49434  53.2185  12.3487 0002062  31.3776 205.6995 15.73171963  3712,6727.975,91.535,351.227,348.45300000000015,0.0
49434.0,STARLINK-3134,PAYLOAD,2021-12-08 06:00:02,15.72888734,0.0002087,53.2177,10.6977,38.0111,288.0561,0.0033442,0.00490635,0.0,0 STARLINK-3134,1 49434U 21104AC  21342.25002315  .00490635  00000-0  33442-2 0  9997,2 49434  53.2177  10.6977 0002087  38.0111 288.0561 15.72888734  5167,6728.783,91.551,352.052,349.24300000000005,0.0
49434.0,STARLINK-3134,PAYLOAD,2021-12-08 14:00:01,15.73205351,0.0002,53.217,9.0496,38.0856,16.6725,-6.2364e-06,-1.497e-05,0.0,0 STARLINK-3134,1 49434U 21104AC  21342.58334491 -.00001497  00000-0 -62364-5 0  9990,2 49434  53.2170   9.0496 0002000  38.0856  16.6725 15.73205351  5211,6727.88,91.533,351.09,348.399,0.0
49434.0,STARLINK-3134,PAYLOAD,2021-12-08 22:00:00,15.73233902,0.0002085,53.2186,7.4003,31.5109,112.3921,-0.00013575,-0.00019658,0.0,0 STARLINK-3134,1 49434U 21104AC  21342.91667824 -.00019658  00000-0 -13575-3 0  9992,2 49434  53.2186   7.4003 0002085  31.5109 112.3921 15.73233902  5277,6727.799,91.531,351.066,348.261,0.0
49434.0,STARLINK-3134,PAYLOAD,2021-12-09 22:00:00,15.73186612,0.0002049,53.2188,2.4517,26.3809,24.3653,-0.00012928,-0.00018715,0.0,0 STARLINK-3134,1 49434U 21104AC  21343.91667824 -.00018715  00000-0 -12928-3 0  9997,2 49434  53.2188   2.4517 0002049  26.3809  24.3653 15.73186612  3685,6727.933000000001,91.534,351.177,348.42,0.0
49434.0,STARLINK-3134,PAYLOAD,2021-12-10 14:00:01,15.73176419,0.0002316,53.2184,359.1551,22.8031,205.7365,0.00015034,0.0002051,0.0,0 STARLINK-3134,1 49434U 21104AC  21344.58334491  .00020510  00000-0  15034-3 0  9997,2 49434  53.2184 359.1551 0002316  22.8031 205.7365 15.73176419  3719,6727.962,91.535,351.386,348.269,0.0
49434.0,STARLINK-3134,PAYLOAD,2021-12-10 22:00:00,15.73161493,0.0002127,53.2187,357.5037,26.5702,290.8847,0.00045394,0.00063468,0.0,0 STARLINK-3134,1 49434U 21104AC  21344.91667824  .00063468  00000-0  45394-3 0  9994,2 49434  53.2187 357.5037 0002127  26.5702 290.8847 15.73161493  3681,6728.005,91.535,351.301,348.439,0.0
49434.0,STARLINK-3134,PAYLOAD,2021-12-11 06:00:00,15.73216298,0.0002335,53.219,355.8558,27.0798,19.2819,-0.00016401,-0.00023594,0.0,0 STARLINK-3134,1 49434U 21104AC  21345.25001157 -.00023594  00000-0 -16401-3 0  9998,2 49434  53.2190 355.8558 0002335  27.0798  19.2819 15.73216298  5639,6727.849,91.532,351.285,348.14300000000014,0.0
